CCSDS_OMM_VERS = 2.0
CREATION_DATE  = 
ORIGINATOR     = 

OBJECT_NAME    = SL-3 R/B
OBJECT_ID      = 1988-032B
CENTER_NAME    = EARTH
REF_FRAME      = TEME
TIME_SYSTEM    = UTC
MEAN_ELEMENT_THEORY = SGP/SGP4

EPOCH          = 2026-03-18T22:46:49.355040
MEAN_MOTION    = 15.20011934
ECCENTRICITY   = .00252704
INCLINATION    = 97.5200
RA_OF_ASC_NODE = 61.1682
ARG_OF_PERICENTER = 197.7712
MEAN_ANOMALY   = 162.2642

EPHEMERIS_TYPE = 0
CLASSIFICATION_TYPE = U
NORAD_CAT_ID   = 19046
ELEMENT_SET_NO = 999
REV_AT_EPOCH   = 5351
BSTAR          = .2041328E-3
MEAN_MOTION_DOT = .4363E-4
MEAN_MOTION_DDOT = 0

CCSDS_OMM_VERS = 2.0
CREATION_DATE  = 
ORIGINATOR     = 

OBJECT_NAME    = SL-16 R/B
OBJECT_ID      = 1988-039B
CENTER_NAME    = EARTH
REF_FRAME      = TEME
TIME_SYSTEM    = UTC
MEAN_ELEMENT_THEORY = SGP/SGP4

EPOCH          = 2026-03-18T22:17:50.685504
MEAN_MOTION    = 14.19617793
ECCENTRICITY   = .00232138
INCLINATION    = 71.0148
RA_OF_ASC_NODE = 49.0091
ARG_OF_PERICENTER = 320.9848
MEAN_ANOMALY   = 38.9601

EPHEMERIS_TYPE = 0
CLASSIFICATION_TYPE = U
NORAD_CAT_ID   = 19120
ELEMENT_SET_NO = 999
REV_AT_EPOCH   = 95969
BSTAR          = .6127364E-5
MEAN_MOTION_DOT = -.35E-6
MEAN_MOTION_DDOT = 0

CCSDS_OMM_VERS = 2.0
CREATION_DATE  = 
ORIGINATOR     = 

OBJECT_NAME    = COSMOS 1953
OBJECT_ID      = 1988-050A
CENTER_NAME    = EARTH
REF_FRAME      = TEME
TIME_SYSTEM    = UTC
MEAN_ELEMENT_THEORY = SGP/SGP4

EPOCH          = 2026-03-18T22:06:23.994720
MEAN_MOTION    = 15.28673334
ECCENTRICITY   = .00126749
INCLINATION    = 82.5095
RA_OF_ASC_NODE = 148.9630
ARG_OF_PERICENTER = 93.6552
MEAN_ANOMALY   = 266.6138

EPHEMERIS_TYPE = 0
CLASSIFICATION_TYPE = U
NORAD_CAT_ID   = 19210
ELEMENT_SET_NO = 999
REV_AT_EPOCH   = 3919
BSTAR          = .2153482E-3
MEAN_MOTION_DOT = .6049E-4
MEAN_MOTION_DDOT = 0

CCSDS_OMM_VERS = 2.0
CREATION_DATE  = 
ORIGINATOR     = 

OBJECT_NAME    = SL-8 R/B
OBJECT_ID      = 1988-053B
CENTER_NAME    = EARTH
REF_FRAME      = TEME
TIME_SYSTEM    = UTC
MEAN_ELEMENT_THEORY = SGP/SGP4

EPOCH          = 2026-03-18T18:51:38.036160
MEAN_MOTION    = 14.38921740
ECCENTRICITY   = .00215406
INCLINATION    = 74.0450
RA_OF_ASC_NODE = 95.6980
ARG_OF_PERICENTER = 273.8298
MEAN_ANOMALY   = 259.2661

EPHEMERIS_TYPE = 0
CLASSIFICATION_TYPE = U
NORAD_CAT_ID   = 19257
ELEMENT_SET_NO = 999
REV_AT_EPOCH   = 97790
BSTAR          = .99274057E-4
MEAN_MOTION_DOT = .28E-5
MEAN_MOTION_DDOT = 0

CCSDS_OMM_VERS = 2.0
CREATION_DATE  = 
ORIGINATOR     = 

OBJECT_NAME    = COSMOS 1975
OBJECT_ID      = 1988-093A
CENTER_NAME    = EARTH
REF_FRAME      = TEME
TIME_SYSTEM    = UTC
MEAN_ELEMENT_THEORY = SGP/SGP4

EPOCH          = 2026-03-18T19:50:28.738464
MEAN_MOTION    = 15.28189480
ECCENTRICITY   = .00129273
INCLINATION    = 82.5164
RA_OF_ASC_NODE = 108.5106
ARG_OF_PERICENTER = 133.3578
MEAN_ANOMALY   = 226.8740

EPHEMERIS_TYPE = 0
CLASSIFICATION_TYPE = U
NORAD_CAT_ID   = 19573
ELEMENT_SET_NO = 999
REV_AT_EPOCH   = 2080
BSTAR          = .19235724E-3
MEAN_MOTION_DOT = .5329E-4
MEAN_MOTION_DDOT = 0

CCSDS_OMM_VERS = 2.0
CREATION_DATE  = 
ORIGINATOR     = 

OBJECT_NAME    = SL-14 R/B
OBJECT_ID      = 1988-093B
CENTER_NAME    = EARTH
REF_FRAME      = TEME
TIME_SYSTEM    = UTC
MEAN_ELEMENT_THEORY = SGP/SGP4

EPOCH          = 2026-03-18T22:58:21.424224
MEAN_MOTION    = 14.85667734
ECCENTRICITY   = .00210081
INCLINATION    = 82.5324
RA_OF_ASC_NODE = 33.3444
ARG_OF_PERICENTER = 11.9430
MEAN_ANOMALY   = 51.3493

EPHEMERIS_TYPE = 0
CLASSIFICATION_TYPE = U
NORAD_CAT_ID   = 19574
ELEMENT_SET_NO = 999
REV_AT_EPOCH   = 239
BSTAR          = .57148085E-4
MEAN_MOTION_DOT = .521E-5
MEAN_MOTION_DDOT = 0

CCSDS_OMM_VERS = 2.0
CREATION_DATE  = 
ORIGINATOR     = 

OBJECT_NAME    = SL-16 R/B
OBJECT_ID      = 1988-102B
CENTER_NAME    = EARTH
REF_FRAME      = TEME
TIME_SYSTEM    = UTC
MEAN_ELEMENT_THEORY = SGP/SGP4

EPOCH          = 2026-03-18T21:00:47.159712
MEAN_MOTION    = 14.16156063
ECCENTRICITY   = .00146196
INCLINATION    = 70.9990
RA_OF_ASC_NODE = 132.1700
ARG_OF_PERICENTER = 347.2285
MEAN_ANOMALY   = 12.8466

EPHEMERIS_TYPE = 0
CLASSIFICATION_TYPE = U
NORAD_CAT_ID   = 19650
ELEMENT_SET_NO = 999
REV_AT_EPOCH   = 92819
BSTAR          = .2003854E-5
MEAN_MOTION_DOT = -.44E-6
MEAN_MOTION_DDOT = 0

CCSDS_OMM_VERS = 2.0
CREATION_DATE  = 
ORIGINATOR     = 

OBJECT_NAME    = INTERCOSMOS 24
OBJECT_ID      = 1989-080A
CENTER_NAME    = EARTH
REF_FRAME      = TEME
TIME_SYSTEM    = UTC
MEAN_ELEMENT_THEORY = SGP/SGP4

EPOCH          = 2026-03-18T11:03:02.708928
MEAN_MOTION    = 12.59570718
ECCENTRICITY   = .11866711
INCLINATION    = 82.6017
RA_OF_ASC_NODE = 98.6913
ARG_OF_PERICENTER = 272.4415
MEAN_ANOMALY   = 74.1646

EPHEMERIS_TYPE = 0
CLASSIFICATION_TYPE = U
NORAD_CAT_ID   = 20261
ELEMENT_SET_NO = 999
REV_AT_EPOCH   = 66790
BSTAR          = .17467036E-3
MEAN_MOTION_DOT = .587E-5
MEAN_MOTION_DDOT = 0

CCSDS_OMM_VERS = 2.0
CREATION_DATE  = 
ORIGINATOR     = 

OBJECT_NAME    = SL-14 R/B
OBJECT_ID      = 1989-080C
CENTER_NAME    = EARTH
REF_FRAME      = TEME
TIME_SYSTEM    = UTC
MEAN_ELEMENT_THEORY = SGP/SGP4

EPOCH          = 2026-03-18T08:35:29.726880
MEAN_MOTION    = 12.50503429
ECCENTRICITY   = .12307757
INCLINATION    = 82.5967
RA_OF_ASC_NODE = 167.6237
ARG_OF_PERICENTER = 164.9438
MEAN_ANOMALY   = 199.2059

EPHEMERIS_TYPE = 0
CLASSIFICATION_TYPE = U
NORAD_CAT_ID   = 20262
ELEMENT_SET_NO = 999
REV_AT_EPOCH   = 66123
BSTAR          = .1344201E-3
MEAN_MOTION_DOT = .469E-5
MEAN_MOTION_DDOT = 0

CCSDS_OMM_VERS = 2.0
CREATION_DATE  = 
ORIGINATOR     = 

OBJECT_NAME    = DELTA 1 R/B
OBJECT_ID      = 1989-089B
CENTER_NAME    = EARTH
REF_FRAME      = TEME
TIME_SYSTEM    = UTC
MEAN_ELEMENT_THEORY = SGP/SGP4

EPOCH          = 2026-03-18T14:06:15.686784
MEAN_MOTION    = 14.50670691
ECCENTRICITY   = .0070718
INCLINATION    = 97.0699
RA_OF_ASC_NODE = 283.6107
ARG_OF_PERICENTER = 94.4002
MEAN_ANOMALY   = 266.5280

EPHEMERIS_TYPE = 0
CLASSIFICATION_TYPE = U
NORAD_CAT_ID   = 20323
ELEMENT_SET_NO = 999
REV_AT_EPOCH   = 89702
BSTAR          = .94494E-4
MEAN_MOTION_DOT = .348E-5
MEAN_MOTION_DDOT = 0

CCSDS_OMM_VERS = 2.0
CREATION_DATE  = 
ORIGINATOR     = 

OBJECT_NAME    = ARIANE 40 R/B
OBJECT_ID      = 1990-005H
CENTER_NAME    = EARTH
REF_FRAME      = TEME
TIME_SYSTEM    = UTC
MEAN_ELEMENT_THEORY = SGP/SGP4

EPOCH          = 2026-03-18T22:00:15.588576
MEAN_MOTION    = 14.39876365
ECCENTRICITY   = .00104339
INCLINATION    = 98.3064
RA_OF_ASC_NODE = 138.3026
ARG_OF_PERICENTER = 170.5372
MEAN_ANOMALY   = 189.6015

EPHEMERIS_TYPE = 0
CLASSIFICATION_TYPE = U
NORAD_CAT_ID   = 20443
ELEMENT_SET_NO = 999
REV_AT_EPOCH   = 89413
BSTAR          = .84620855E-4
MEAN_MOTION_DOT = .224E-5
MEAN_MOTION_DDOT = 0

CCSDS_OMM_VERS = 2.0
CREATION_DATE  = 
ORIGINATOR     = 

OBJECT_NAME    = DELTA 2 R/B(1)
OBJECT_ID      = 1990-008B
CENTER_NAME    = EARTH
REF_FRAME      = TEME
TIME_SYSTEM    = UTC
MEAN_ELEMENT_THEORY = SGP/SGP4

EPOCH          = 2026-03-18T19:16:07.447872
MEAN_MOTION    = 15.57130229
ECCENTRICITY   = .00820237
INCLINATION    = 35.6024
RA_OF_ASC_NODE = 114.9908
ARG_OF_PERICENTER = 343.0931
MEAN_ANOMALY   = 16.7077

EPHEMERIS_TYPE = 0
CLASSIFICATION_TYPE = U
NORAD_CAT_ID   = 20453
ELEMENT_SET_NO = 999
REV_AT_EPOCH   = 92755
BSTAR          = .54577361E-3
MEAN_MOTION_DOT = .48118E-3
MEAN_MOTION_DDOT = 0

