SL-3 R/B                
1 19046U 88032B   26077.94918235  .00004363  00000+0  20413-3 0  9992
2 19046  97.5200  61.1682 0025270 197.7712 162.2642 15.20011934 53512
SL-16 R/B               
1 19120U 88039B   26077.92905886 -.00000035  00000+0  61274-5 0  9993
2 19120  71.0148  49.0091 0023213 320.9848  38.9601 14.19617793959697
COSMOS 1953             
1 19210U 88050A   26077.92111105  .00006049  00000+0  21535-3 0  9993
2 19210  82.5095 148.9630 0012674  93.6552 266.6138 15.28673334 39191
SL-8 R/B                
1 19257U 88053B   26077.78585690  .00000280  00000+0  99274-4 0  9992
2 19257  74.0450  95.6980 0021540 273.8298 259.2661 14.38921740977906
COSMOS 1975             
1 19573U 88093A   26077.82672151  .00005329  00000+0  19236-3 0  9999
2 19573  82.5164 108.5106 0012927 133.3578 226.8740 15.28189480 20800
SL-14 R/B               
1 19574U 88093B   26077.95719241  .00000521  00000+0  57148-4 0  9990
2 19574  82.5324  33.3444 0021008  11.9430  51.3493 14.85667734  2392
SL-16 R/B               
1 19650U 88102B   26077.87554583 -.00000044  00000+0  20039-5 0  9994
2 19650  70.9990 132.1700 0014619 347.2285  12.8466 14.16156063928192
INTERCOSMOS 24          
1 20261U 89080A   26077.46044802  .00000587  00000+0  17467-3 0  9993
2 20261  82.6017  98.6913 1186671 272.4415  74.1646 12.59570718667909
SL-14 R/B               
1 20262U 89080C   26077.35798295  .00000469  00000+0  13442-3 0  9992
2 20262  82.5967 167.6237 1230775 164.9438 199.2059 12.50503429661237
DELTA 1 R/B             
1 20323U 89089B   26077.58768156  .00000348  00000+0  94494-4 0  9990
2 20323  97.0699 283.6107 0070718  94.4002 266.5280 14.50670691897025
ARIANE 40 R/B           
1 20443U 90005H   26077.91684709  .00000224  00000+0  84621-4 0  9995
2 20443  98.3064 138.3026 0010433 170.5372 189.6015 14.39876365894131
DELTA 2 R/B(1)          
1 20453U 90008B   26077.80286398  .00048118  00000+0  54577-3 0  9999
2 20453  35.6024 114.9908 0082023 343.0931  16.7077 15.57130229927557
